NORAD_CAT_ID,OBJECT_NAME,OBJECT_TYPE,EPOCH,MEAN_MOTION,ECCENTRICITY,INCLINATION,RA_OF_ASC_NODE,ARG_OF_PERICENTER,MEAN_ANOMALY,BSTAR,MEAN_MOTION_DOT,MEAN_MOTION_DDOT,TLE_LINE0,TLE_LINE1,TLE_LINE2,SEMIMAJOR_AXIS,PERIOD,APOGEE,PERIGEE,DECAYED
56801.0,STARLINK-6087,PAYLOAD,2023-12-01 06:00:00,15.40779916,0.0003258,70.0002,257.4853,269.5642,255.0982,-0.02354,-0.00890196,0.0,0 STARLINK-6087,1 56801U 23078AL  23335.25001157 -.00890196  00000-0 -23540-1 0  9997,2 56801  70.0002 257.4853 0003258 269.5642 255.0982 15.40779916 29143,6821.943,93.459,446.031,441.586,0.0
56801.0,STARLINK-6087,PAYLOAD,2023-12-01 22:00:00,15.39512307,0.0003408,70.0005,255.6933,261.2957,358.5861,-0.026287,-0.00948067,0.0,0 STARLINK-6087,1 56801U 23078AL  23335.91667824 -.00948067  00000-0 -26287-1 0  9991,2 56801  70.0005 255.6933 0003408 261.2957 358.5861 15.39512307 29254,6825.687,93.536,449.879,445.226,0.0
56801.0,STARLINK-6087,PAYLOAD,2023-12-02 14:00:01,15.3815617,0.0003365,70.0,253.9042,262.1652,89.8405,-0.025273,-0.00877624,0.0,0 STARLINK-6087,1 56801U 23078AL  23336.58334491 -.00877624  00000-0 -25273-1 0  9990,2 56801  70.0000 253.9042 0003365 262.1652  89.8405 15.38156170  6035,6829.699,93.619,453.862,449.266,0.0
56801.0,STARLINK-6087,PAYLOAD,2023-12-02 22:00:00,15.37557254,0.0003365,70.0004,253.0112,263.4981,133.3659,-0.028181,-0.00952854,0.0,0 STARLINK-6087,1 56801U 23078AL  23336.91667824 -.00952854  00000-0 -28181-1 0  9996,2 56801  70.0004 253.0112 0003365 263.4981 133.3659 15.37557254 29406,6831.472,93.655,455.636,451.038,0.0
56801.0,STARLINK-6087,PAYLOAD,2023-12-03 14:00:01,15.361926,0.0003314,69.9999,251.2276,262.5231,221.774,-0.026529,-0.0086535,0.0,0 STARLINK-6087,1 56801U 23078AL  23337.58334491 -.00865350  00000-0 -26529-1 0  9999,2 56801  69.9999 251.2276 0003314 262.5231 221.7740 15.36192600 29502,6835.517,93.738,459.648,455.117,0.0
56801.0,STARLINK-6087,PAYLOAD,2023-12-04 06:00:00,15.34913072,0.0003219,69.9999,249.4474,267.6069,300.9623,-0.028774,-0.00897971,0.0,0 STARLINK-6087,1 56801U 23078AL  23338.25001157 -.00897971  00000-0 -28774-1 0  9992,2 56801  69.9999 249.4474 0003219 267.6069 300.9623 15.34913072 29614,6839.316,93.816,463.382,458.979,0.0
56801.0,STARLINK-6087,PAYLOAD,2023-12-04 16:00:01,15.34075774,0.0003419,69.9998,248.3368,263.3829,86.3404,-0.028106,-0.00857367,0.0,0 STARLINK-6087,1 56801U 23078AL  23338.66668981 -.00857367  00000-0 -28106-1 0  9995,2 56801  69.9998 248.3368 0003419 263.3829  86.3404 15.34075774  6000,6841.804,93.868,466.008,461.33,0.0
56801.0,STARLINK-6087,PAYLOAD,2023-12-04 22:00:00,15.3364209,0.0003388,70.0001,247.6709,265.3262,24.3841,-0.031949,-0.00952529,0.0,0 STARLINK-6087,1 56801U 23078AL  23338.91667824 -.00952529  00000-0 -31949-1 0  9993,2 56801  70.0001 247.6709 0003388 265.3262  24.3841 15.33642090 29717,6843.094,93.894,467.277,462.64,0.0
56801.0,STARLINK-6087,PAYLOAD,2023-12-05 14:00:01,15.32273385,0.0003323,70.0,245.898,265.1871,102.5679,-0.029631,-0.00854048,0.0,0 STARLINK-6087,1 56801U 23078AL  23339.58334491 -.00854048  00000-0 -29631-1 0  9990,2 56801  70.0000 245.8980 0003323 265.1871 102.5679 15.32273385 29815,6847.168,93.978,471.309,466.758,0.0
56801.0,STARLINK-6087,PAYLOAD,2023-12-05 22:00:00,15.31685931,0.0003367,70.0001,245.013,268.3294,137.2429,-0.034111,-0.00968107,0.0,0 STARLINK-6087,1 56801U 23078AL  23339.91667824 -.00968107  00000-0 -34111-1 0  9997,2 56801  70.0001 245.0130 0003367 268.3294 137.2429 15.31685931  6026,6848.919,94.014,473.09,468.478,0.0
56801.0,STARLINK-6087,PAYLOAD,2023-12-06 06:00:00,15.310124,0.0003257,69.9997,244.1285,273.1044,169.5294,-0.033284,-0.00916625,0.0,0 STARLINK-6087,1 56801U 23078AL  23340.25001157 -.00916625  00000-0 -33284-1 0  9995,2 56801  69.9997 244.1285 0003257 273.1044 169.5294 15.31012400 29919,6850.927,94.055,475.024,470.561,0.0
56801.0,STARLINK-6087,PAYLOAD,2023-12-06 14:00:01,15.30315747,0.0003236,70.0001,243.2454,266.5157,212.4062,-0.031294,-0.00848849,0.0,0 STARLINK-6087,1 56801U 23078AL  23340.58334491 -.00848849  00000-0 -31294-1 0  9992,2 56801  70.0001 243.2454 0003236 266.5157 212.4062 15.30315747  6032,6853.006,94.098,477.089,472.654,0.0
56801.0,STARLINK-6087,PAYLOAD,2023-12-06 22:00:00,15.29721612,0.0003249,70.0003,242.3629,268.4647,245.9326,-0.03587,-0.00958369,0.0,0 STARLINK-6087,1 56801U 23078AL  23340.91667824 -.00958369  00000-0 -35870-1 0  9991,2 56801  70.0003 242.3629 0003249 268.4647 245.9326 15.29721612  6020,6854.781,94.135,478.873,474.419,0.0
56801.0,STARLINK-6087,PAYLOAD,2023-12-07 06:00:02,15.29057953,0.0003188,70.0,241.4812,271.235,277.9367,-0.035623,-0.00922749,0.0,0 STARLINK-6087,1 56801U 23078AL  23341.25002315 -.00922749  00000-0 -35623-1 0  9996,2 56801  70.0000 241.4812 0003188 271.2350 277.9367 15.29057953 30078,6856.764,94.176,480.815,476.443,0.0
56801.0,STARLINK-6087,PAYLOAD,2023-12-07 14:00:01,15.28360052,0.0003241,70.0004,240.6004,264.0383,319.0736,-0.033223,-0.00848401,0.0,0 STARLINK-6087,1 56801U 23078AL  23341.58335648 -.00848401  00000-0 -33223-1 0  9996,2 56801  70.0004 240.6004 0003241 264.0383 319.0736 15.28360052  5720,6858.851,94.219,482.939,478.493,0.0
56801.0,STARLINK-6087,PAYLOAD,2023-12-08 14:00:01,15.26402459,0.0003384,70.0006,237.9633,263.7693,56.3656,-0.035194,-0.00846786,0.0,0 STARLINK-6087,1 56801U 23078AL  23342.58334491 -.00846786  00000-0 -35194-1 0  9995,2 56801  70.0006 237.9633 0003384 263.7693  56.3656 15.26402459 30273,6864.714,94.339,488.902,484.256,0.0
56801.0,STARLINK-6087,PAYLOAD,2023-12-08 22:00:00,15.25802396,0.0003419,70.0009,237.0861,267.5082,83.4115,-0.040056,-0.0095004,0.0,0 STARLINK-6087,1 56801U 23078AL  23342.91667824 -.00950040  00000-0 -40056-1 0  9993,2 56801  70.0009 237.0861 0003419 267.5082  83.4115 15.25802396  5932,6866.514,94.377,490.727,486.031,0.0
56801.0,STARLINK-6087,PAYLOAD,2023-12-09 06:00:00,15.25147369,0.000344,70.0006,236.2096,271.6681,109.2648,-0.04042,-0.00940656,0.0,0 STARLINK-6087,1 56801U 23078AL  23343.25001157 -.00940656  00000-0 -40420-1 0  9999,2 56801  70.0006 236.2096 0003440 271.6681 109.2648 15.25147369 30371,6868.48,94.417,492.708,487.982,0.0
56801.0,STARLINK-6087,PAYLOAD,2023-12-09 14:00:01,15.24447732,0.0003407,70.0007,235.3341,265.1989,144.9806,-0.037469,-0.00849683,0.0,0 STARLINK-6087,1 56801U 23078AL  23343.58334491 -.00849683  00000-0 -37469-1 0  9992,2 56801  70.0007 235.3341 0003407 265.1989 144.9806 15.24447732  6031,6870.581,94.46,494.787,490.105,0.0
56801.0,STARLINK-6087,PAYLOAD,2023-12-09 22:00:00,15.2384394,0.000333,70.001,234.4595,268.4357,170.1836,-0.042399,-0.00948277,0.0,0 STARLINK-6087,1 56801U 23078AL  23343.91667824 -.00948277  00000-0 -42399-1 0  9995,2 56801  70.0010 234.4595 0003330 268.4357 170.1836 15.23843940  5938,6872.396,94.498,496.55,491.973,0.0
56801.0,STARLINK-6087,PAYLOAD,2023-12-10 14:00:01,15.22495572,0.0003241,70.0007,232.7128,264.2817,228.9016,-0.040079,-0.00856853,0.0,0 STARLINK-6087,1 56801U 23078AL  23344.58334491 -.00856853  00000-0 -40079-1 0  9991,2 56801  70.0007 232.7128 0003241 264.2817 228.9016 15.22495572 30576,6876.453,94.582,500.547,496.089,0.0
56801.0,STARLINK-6087,PAYLOAD,2023-12-10 22:00:01,15.21882775,0.0003217,70.0009,231.8407,266.77,252.5729,-0.044599,-0.00941556,0.0,0 STARLINK-6087,1 56801U 23078AL  23344.91668981 -.00941556  00000-0 -44599-1 0  9998,2 56801  70.0009 231.8407 0003217 266.7700 252.5729 15.21882775  5962,6878.299,94.62,502.377,497.951,0.0
56801.0,STARLINK-6087,PAYLOAD,2023-12-11 06:00:00,15.21239373,0.0003168,70.0005,230.9695,268.9134,275.6822,-0.045999,-0.00952032,0.0,0 STARLINK-6087,1 56801U 23078AL  23345.25001157 -.00952032  00000-0 -45999-1 0  9998,2 56801  70.0005 230.9695 0003168 268.9134 275.6822 15.21239373 30684,6880.238,94.66,504.283,499.923,0.0
56801.0,STARLINK-6087,PAYLOAD,2023-12-11 14:00:01,15.20542075,0.0003227,70.0004,230.0994,261.1789,307.9677,-0.042682,-0.00871337,0.0,0 STARLINK-6087,1 56801U 23078AL  23345.58334491 -.00871337  00000-0 -42682-1 0  9998,2 56801  70.0004 230.0994 0003227 261.1789 307.9677 15.20542075  6026,6882.341,94.703,506.427,501.985,0.0
56801.0,STARLINK-6087,PAYLOAD,2023-12-11 22:00:01,15.1992199,0.0003232,70.0006,229.2299,264.4029,328.5591,-0.046831,-0.00933971,0.0,0 STARLINK-6087,1 56801U 23078AL  23345.91668981 -.00933971  00000-0 -46831-1 0  9992,2 56801  70.0006 229.2299 0003232 264.4029 328.5591 15.19921990 30784,6884.213,94.742,508.303,503.853,0.0
56801.0,STARLINK-6087,PAYLOAD,2023-12-12 14:00:01,15.18586144,0.0003292,70.0001,227.4938,259.7068,18.3639,-0.045232,-0.00872222,0.0,0 STARLINK-6087,1 56801U 23078AL  23346.58334491 -.00872222  00000-0 -45232-1 0  9997,2 56801  70.0001 227.4938 0003292 259.7068  18.3639 15.18586144  5859,6888.25,94.825,512.382,507.847,0.0
56801.0,STARLINK-6087,PAYLOAD,2023-12-13 00:00:00,15.17788219,0.0003293,70.0001,226.4104,267.6701,127.0396,-0.048333,-0.00908049,0.0,0 STARLINK-6087,1 56801U 23078AL  23347.00001157 -.00908049  00000-0 -48333-1 0  9997,2 56801  70.0001 226.4104 0003293 267.6701 127.0396 15.17788219  5928,6890.664,94.875,514.798,510.26,0.0
56801.0,STARLINK-6087,PAYLOAD,2023-12-13 06:00:00,15.17330419,0.0003299,69.9996,225.761,266.1546,53.9423,-0.052174,-0.00962923,0.0,0 STARLINK-6087,1 56801U 23078AL  23347.25001157 -.00962923  00000-0 -52174-1 0  9993,2 56801  69.9996 225.7610 0003299 266.1546  53.9423 15.17330419 30986,6892.05,94.904,516.188,511.641,0.0
56801.0,STARLINK-6087,PAYLOAD,2023-12-13 14:00:01,15.16629664,0.0003369,69.9996,224.8961,259.9607,79.9932,-0.047819,-0.00871649,0.0,0 STARLINK-6087,1 56801U 23078AL  23347.58334491 -.00871649  00000-0 -47819-1 0  9993,2 56801  69.9996 224.8961 0003369 259.9607  79.9932 15.16629664  6013,6894.172,94.947,518.36,513.715,0.0
56801.0,STARLINK-6087,PAYLOAD,2023-12-13 22:00:00,15.16004383,0.000319,69.9997,224.0318,263.84,95.1712,-0.051845,-0.00924162,0.0,0 STARLINK-6087,1 56801U 23078AL  23347.91667824 -.00924162  00000-0 -51845-1 0  9992,2 56801  69.9997 224.0318 0003190 263.8400  95.1712 15.16004383 31085,6896.068,94.987,520.133,515.733,0.0
